{
  "type": "FeatureCollection",
  "name": "parcel_a",
  "crs": {
    "type": "name",
    "properties": {
      "name": "urn:ogc:def:crs:OGC:1.3:CRS84"
    }
  },
  "features": [
    {
      "type": "Feature",
      "properties": {
        "aoi_id": "PARCEL_A",
        "source": "Stage 01 AOI",
        "source_crs": "EPSG:32633",
        "computed_area_ha": 5127.480571516418
      },
      "geometry": {
        "type": "Polygon",
        "coordinates": [
          [
            [13.870558527499307, 6.607974431675913],
            [13.926460317444779, 6.575363954152991],
            [13.974697548755477, 6.603524631138707],
            [13.924606687078198, 6.631887281739859],
            [13.93479013232794, 6.650513024605466],
            [13.91669625171208, 6.657996784201509],
            [13.878554150883298, 6.627431384994347],
            [13.870558527499307, 6.607974431675913]
          ]
        ]
      }
    }
  ]
}
